id,name,address,postalcode,lat,lng
1,AMK Bus Interchange,53 Ang Mo Kio Avenue 3 S(569933),Singapore (569933),1.36885,103.84823
2,Bishan Bus Interchange,514 Bishan Street 13 S(570514),Singapore (570514),1.34834,103.8532
3,Harbourfront Bus Terminal,4 Seah Im Road S(099115),Singapore (099115),1.26772,103.81889
4,Kampong Bahru Bus Terminal,11A Spooner Road S(168795),Singapore (168795),1.28944,103.84998
5,Kent Ridge Bus Terminal,37B Clementi Road S(129762),Singapore (129762),1.29934,103.76942
6,Queens Street Bus Terminal, Ban San St,Singapore (884001),1.30334,103.85632
7,Shenton Way Bus Terminal,31 Shenton Way S(079121),Singapore (079121),1.28944,103.84998
8,St. Michael's Bus Terminal,10 Whampoa Road S(327691),Singapore (327691),1.32626,103.85557
9,Seletar Country Club,101 Seletar Club Road S(798273),Singapore (798273),1.41527,103.86116
10,CCMW,Blk 1 Cantonment Road S(080001),Singapore (080001),1.27637,103.84093
11,CCMW,Blk 803 King George's Avenue S(200803),Singapore (200803),1.30884,103.8606
12,CCMW Food House,Blk 40 Holland Drive #01-39 S (270040),Singapore (270040),1.30721,103.79348
13,CCMW Queen Street,Blk 269 Queen Street #01-236 S(180269),Singapore (180269),1.30029,103.85406
14,CCMW Toa Payoh Central,Blk 78C Toa Payoh Central S(313078),Singapore (313078),1.3342,103.84915
15,Chang Cheng Mee Wah Restaurant,Blk 111 Toa Payoh Lorong 1 #01-366 S(310111),Singapore (310111),1.33784,103.84568
16,CMW Redhill Food House,Blk 75D Redhill Road #01-94 S(154075),Singapore (154075),1.28918,103.81583
17,NTUC Foodfare Anchorvale,Blk 308 Anchorvale Road #01-07 S(540308),Singapore (540308),1.3931,103.88724
18,Kuofu Foodcourt,Blk 88 Tanglin Halt S(141088),Singapore (141088),1.30069,103.79715
19,NTUC Foodfare Court@Clifford Centre,Clifford Centre 24 Raffles Place S(048621),Singapore (048621),1.28454,103.85203
20,The Gallerie Foodcourt,Marina Sq 6 Raffles Boulevard #04-101/102 S(039594),Singapore (039594),1.29193,103.85767
21,Health Sciences Authority,11 Outram Road S(169078),Singapore (169078),1.2802,103.83767
22,Maritime and Port Authority of Singapore,460 Alexandra Road #18-00 S(119963),Singapore (119963),1.27775,103.79977
23,Ministry of Social & Family Development (MSF),512 Thomson Rd Level 1 5 & 17 S(298136),Singapore (298136),1.33602,103.83716
24,Ministry of the Environment & Water Resources Environment Building,40 Scotts Road Level 1-4 S(228231),Singapore (228231),1.31074,103.83579
25,National Environment Agency Environment Building,40 Scotts Road Level 6/11/12/19/20/21 S(228231),Singapore (228231),1.31074,103.835793
26,PSA Tanjong Pagar Complex,7B Keppel Road #19 - #21 S(089054),Singapore (089054),1.27253,103.84355
27,PSA Vista,20 Harbour Drive #08-00 S(117612),Singapore (117612),1.28099,103.78293
28,Sengkang General Hospital,110 Sengkang East Way S(544886),Singapore (544886),1.39156,103.8978
29,Tan Tock Seng Hospital,11 Jalan Tan Tock Seng S(308433),Singapore (308433),1.32199,103.8469
30,National Library,100 Victoria Street S(188064),Singapore (188064),1.29823,103.85392
31,Adam Road Food Centre,2 Adam Road S(289876),Singapore (289876),1.32926,103.81452
32,Amoy Food Centre,National Development Building (Annex B) Telok Ayer Street S(069111),Singapore (069111),1.27873,103.84555
33,Beo Crescent Market & Food Centre,38A Beo Crescent S(169982),Singapore (169982),1.28864,103.82764
34,Berseh Food Centre,166 Jalan Besar S(208877),Singapore (208877),1.30578,103.85554
35,Bukit Timah Market & Food Centre,51 Upper Bukit Timah Road S(588215),Singapore (588215),1.3416,103.77588
36,Commonwealth Crescent Market,31 Commonwealth Crescent S(149644),Singapore (149644),1.30732,103.80005
37,Golden Mile Food Centre,505 Beach Road S(199583),Singapore (199583),1.2931,103.854
38,Market Street Food Centre,50 Market Street Golden Shoe Multi-Storey Car Park 2nd/3rd Storey S(048940),Singapore (048940),1.2840042,103.8500898
39,Maxwell Food Centre,1 Kadayanallur Street S(069184),Singapore (069184),1.280338704,103.8447631
40,Newton Food Centre,500 Clemenceau Ave North S(229495),Singapore (229495),1.3122068,103.8395832
41,North Bridge Road Market & Food Centre,861 North Bridge Road S(198783),Singapore (198783),1.3057379,103.8639914
42,Sembawang Hill Food Centre,590 Upper Thomson Road S(574419),Singapore (574419),1.3721919,103.8288748
43,Tanglin Halt Market,48A Tanglin Halt Road S(148813),Singapore (148813),1.3004795,103.7977466
44,Tiong Bahru Market,30 Seng Poh Road S(168898),Singapore (168898),1.2847325,103.832459
45,Zion Riverside Food Centre,70 Zion Road S(247792),Singapore (247792),1.2923639,103.8312212
46,Ang Mo Kio MRT station,2450 Ang Mo Kio Avenue 8 S(569811),Singapore (569811),1.3700479,103.8495715
47,Bayfront MRT Station,11 Bayfront Avenue S(018957),Singapore (018957),1.2826842,103.8598035
48,Bencoolen MRT Station (DT23),31 Bencoolen Street S(189658),Singapore (189658),1.2980346,103.8496072
49,Bendemeer MRT Station (DT23),11 Kallang Bahru S(339356),Singapore (339356),1.3149163,103.864025
50,Bishan MRT station,200 Bishan Road S(579827),Singapore (579827),1.3514551,103.8482628
51,Botanic Gardens MRT station,701 Telok Blangah Road S(109029),Singapore (109029),1.2662734,103.8258826
52,Braddell MRT Station,377 Lorong 1 Toa Payoh S(319756),Singapore (319756),1.3341115,103.8431428
53,Bras Basah MRT Station,65 Bras Basah Road S(189561),Singapore (189561),1.2969735,103.8506025
54,Bugis MRT Station (DT14),220 Victoria Street S(188022),Singapore (188022),1.2952,103.851
55,Chinatown MRT Station (DT19),91 Upper Cross Street S(058362),Singapore (058362),1.2882491,103.8412146
56,City Hall MRT Station,150 North Bridge Road S(179100),Singapore (179100),1.2930538,103.8524062
57,Clark Quay MRT Station (NE5),10 Outram Road S(169037),Singapore (169037),1.2804483,103.8392738
58,Dhoby Ghaut MRT Station,11 Orchard Road S(238826),Singapore (238826),1.2987695,103.8460031
59,Dhoby Ghaut MRT Station Circle Line,11 Orchard Road S(238826),Singapore (238826),1.2987695,103.8460031
60,Downtown MRT Station (DT17),15 Central Boulevard S(018969),Singapore (018969),1.2774142,103.8559907
61,Esplanade MRT Station,90 Bras Basah Road S(189562),Singapore (189562),1.293607,103.8554229
62,Farrer Road MRT station,119 Pasir Panjang Road S(117424),Singapore (117424),1.2735354,103.7995161
63,Fort Canning MRT Station (DT20),170 River Valley Road S(179038),Singapore (179038),1.2956835,103.8366692
64,Geylang Bahru MRT Station (DT24),541 Kallang Bahru S(339355),Singapore (339355),1.3149163,103.864025
65,HarbourFront MRT Station (NE1),81 Telok Blangah Road S(098867),Singapore (098867),1.2659935,103.8204935
66,Holland Village MRT station,262 Pasir Panjang Road S(118628),Singapore (118628),1.2726749,103.8014953
67,Jalan Besar MRT Station (DT22),35B Jalan Besar S(208800),Singapore (208800),1.3045674,103.8545593
68,Jalan Besar MRT Station B1 (DT22),35B Jalan Besar S(208800),Singapore (208800),1.3045674,103.8545593
69,Kallang MRT Station (EW10),5 Sims Avenue S(387405),Singapore (387405),1.3165617,103.8904882
70,Marina Bay MRT Station,21 Marina Station Road S(018990),Singapore (018990),1.2756,103.855
71,Marina South Pier station,31 Marina Coastal Drive S(018988),Singapore (018988),1.2707176,103.8629867
72,Marymount Station,60 Marymount Road S(573993),Singapore (573993),1.3490637,103.8395344
73,Newton MRT station,49 Scotts Road S(228234),Singapore (228234),1.3124816,103.8379255
74,Nicoll Highway MRT Station,20 Republic Avenue S(038970),Singapore (038970),1.2997208,103.8633996
75,Orchard MRT Station,437 Orchard Road S(238878),Singapore (238878),1.3042924,103.8324935
76,Outram MRT Station,10 Outram Road S(169037),Singapore (169037),1.2804483,103.8392738
77,Outram MRT Station (NE3),10 Eu Tong Sen Street S(059815),Singapore (059815),1.2888019,103.8468719
78,Promenade MRT Station,2 Tamasek Avenue S(039193),Singapore (039193),1.2932393,103.8610995
79,Raffles Place MRT Station,5 Raffles Place S(048618),Singapore (048618),1.2835947,103.851568
80,Tanjong Pagar MRT Station,120 Maxwell Road S(069119),Singapore (069119),1.2765001,103.8454988
81,Telok Ayer MRT Station (DT18),7 Cross Street S(048416),Singapore (048416),1.2812702,103.8502305
82,Woodleigh MRT Station (NE11),400 Upper Serangoon Road S(347695),Singapore (347695),1.368333,103.8937421
83,Marina South Pier,31 Marina Coastal Drive S(018988),Singapore (018988),1.2707176,103.8629867
84,Malabar Muslim Jamaath Mosque,471 Victoria Street S(198370),Singapore (198370),1.3052675,103.8598452
85,Lum Chang Building,14 Kung Chong Road S(159150),Singapore (159150),1.2896036,103.8128124
86,Palais Renaissance,390 Orchard Road S(238871),Singapore (238871),1.3068516,103.8298378
87,Wee Hur Construction Pte Ltd,39 Kim Keat Road Wee Hur Building S(328814),Singapore (328814),1.3251818,103.8536828
88,MTR 1924 Indian Restaurant,438 Serangoon Road S(218133),Singapore (218133),1.3131334,103.856602
89,Dawson Place Shopping Centre,57 Dawson Road S(142057),Singapore (142057),1.2925348,103.8113068
90,Liang Court,177B River Valley Road S(179032),Singapore (179032),1.2918707,103.8444901
91,New Bridge Centre,336 Smith Street S(050336),Singapore (050336),1.2830148,103.8427448
92,Palais Renaissance,390 Orchard Road Basement 1-Level 3 S(238871),Singapore (238871),1.3068516,103.8298378
93,Palais Renaissance,390 Orchard Road Basement 2 S(238871),Singapore (238871),1.3068516,103.8298378
94,Robertson Walk,11 Unity Street #02-20A S(237995),Singapore (237995),1.292023221,103.8414404
95,Square 2 Shopping Mall,10 Sinaran Drive S(307506),Singapore (307506),1.320732,103.8444396
96,The Central,6 Eu Tong Sen Street S(059817),Singapore (059817),1.2889806,103.8468686
97,The Shoppes at Marina Bay Sands,2 Bayfront Avenue S(018972),Singapore (018972),1.2848054,103.8590539
99,Tiong Bahru Plaza,302 Tiong Bahru Road S(168732),Singapore (168732),1.286308881,103.8271764
100,Valley Point Mall,491 River Valley Road S(248371),Singapore (248371),1.2930751,103.8267442
101,Custom House,80 Collyer Quay (049326),Singapore (049326),1.2846509,103.8536626
102,Merlion Park@Fullerton,1 Fullerton Road S(049178),Singapore (049178),1.2858792,103.8540316
103,One Fullerton,1 Fullerton Square S(049178),Singapore (049178),1.2858792,103.8540316
104,Sentosa Beach Station,33 Allanbroke Road Sentosa S(099981),Singapore (099981),1.2512979,103.8178132
105,Sentosa Imbiah Lookout,Imbiah Lookout Sentosa S(099538),Singapore (099538),1.2552278,103.8175128
106,Sentosa Imbiah Station,Imbiah Express Station Sentosa S(099981),Singapore (099981),1.2539153,103.8194525
107,Sentosa Palawan Beach (East),Palawan Beach Walk S(098521),Singapore (098521),1.249673,103.82188
108,Sentosa Palawan Beach (West),Palawan Beach Walk S(098038),Singapore (098038),1.248949,103.822374
109,Sentosa Palawan Kidz City,31 Beach View Palawan Kidz City S(098008),Singapore (098008),1.2510787,103.8202912
110,Sentosa Silosa Beach (East),Siloso Beach Walk S(098997),Singapore (098997),1.2514,103.82
111,Sentosa Wings of Time,"50 Beach View, 098604",Singapore (099538),1.2512979,103.8178132
112,The Fullerton Water Boat House,1 Fullerton Road S(049213),Singapore (049213),1.2858792,103.8540316
113,Compassvale Bus Interchange,51A Compassvale Road S(544760),Singapore (544760),1.391519285,103.8973108
114,Hougang Bus Interchanage,840 Hougang Central S(53877),Singapore ((53877),1.370795,103.8919716
115,Sengkang Bus Interchange,13 Sengkang Square S(545077),Singapore (545077),1.391025341,103.8959565
116,Tampines Bus Interchange,512 Tampines Central 1 S(520512),Singapore (520512),1.3536,103.943
117,Tampines Concourse Bus Interchange,11 Tampines Concourse S(529543),Singapore (529543),1.3571,103.941
118,Safra Punggol,9 Sentul Crescent S(828654),Singapore (828654),1.4092217,103.9022787
119,21 Street Eating House,Blk 201 Tampines Street 21 # 01-201 S(520201),Singapore (520201),1.352943,103.953569
120,CCMW Hougang Avenue 8,Blk 631 Hougang Avenue 8 #01-06 S(530631),Singapore (530631),1.37056,103.88141
121,CCMW Tampines Ave 4,Blk 802 Tampines Ave 4 #01-77 S(520802),Singapore (520802),1.3457892,103.9384383
122,CCMW Tampines Street 21,Blk 201C Tampines Street 21 #01-01 S(523201),Singapore (523201),1.352888435,103.9531061
123,CCMW Tampines Street 41,Blk 406 Tampines Street 41 #01-07 S(520406),Singapore (520406),1.358495964,103.9460072
124,CCMW Tampines Street 81,Blk 820 Tampines Street 81 #01-501 S(520820),Singapore (520820),1.34832365,103.9363224
125,NTUC Foodfare,Blk 273C Punggol Place #01-882 S(823273),Singapore (823273),1.402271,103.90
126,NTUC Foodfare Anchorvale,Blk 308 Anchorvale Road #01-07 S(540308),Singapore (540308),1.389539,103.886398
127,NTUC Foodfare Pasir Ris,527C Pasir Ris Street 51 S(513527),Singapore (513527),1.369424,103.947764
128,NTUC Foodfare Upper Serangoon,476D Upper Serangoon View #02-05 S(537476)),Singapore (37476)),1.377633,103.903619
129,Koufu Foodcourt,Blk 118 Rivervale Drive #02-15/16 S(540118),Singapore (540118),1.385594,103.901983
130,Koufu Foodcourt,Blk 263 Compassvale Street #01-09 S(540263),Singapore (540263),1.395267,103.895957
131,Chomp Chomp Food Centre,20 Kensington Park Road S(557269),Singapore (557269),1.364229,103.8666
132,Hawker Centre @ Our Tampines Hub,902 Tampines Avenue 4 S(520902),Singapore (520902),1.351286,103.939243
133,Pasir Ris Central Hawker Centre,110 Pasir Ris Central S(519641),Singapore (519641),1.373578,103.951472
134,Serangoon Garden Market,49A Serangoon Garden Way S(555945),Singapore (555945),1.363381,103.866835
135,Bedok Reservoir MRT Station (DT30),371 Bedok North Avenue 3 S(469724),Singapore (469724),1.333019,103.933951
136,Eunos MRT Station,30 Eunos Crescent S(409423),Singapore (409423),1.3197,103.902894
137,Kaki Bukit MRT Station (DT28),30 Kaki Bukit Avenue 1 S(415804),Singapore (415804),1.334927,103.909016
138,Kembangan MRT Station,55 Sims Avenue East S(416551),Singapore (416551),1.320959,103.912676
139,Pasir Ris MRT Station,10 Pasir Ris Central S(519634),Singapore (519634),1.373114,103.949341
140,Punggol MRT Station-NE17,10 Punggol Central S(828868),Singapore (828868),1.398153,103.913025
141,Tampines East MRT Station (DT33),20 Tampines Avenue 7 S(529623),Singapore (529623),1.356308,103.954651
142,Tampines MRT Station (EW2),20 Tampines Central S(529538),Singapore (529538),1.353554,103.944945
143,Tampines MRT Station (DT32),20 Tampines Central S(529538),Singapore (529538),1.353554,103.944945
144,Tampines West MRT Station (DT31),2 Tampines Avenue 4 S(529683),Singapore (529683),1.345626,103.938218
145,Tanah Merah MRT Station,920 New Upper Changi Road (467356),Singapore (467356),1.3272,103.946395
146,Al - Istighfar Mosque,2 Pasir Ris Walk S(518239),Singapore (518239),1.371115,103.964096
147,Century Square,2 Tampines Central 5 S(529509),Singapore (529509),1.352389,103.943857
148,Elias Mall,Blk 625 Level 1 & 2 Elias Road S(510625),Singapore (510625),1.377665,103.941441
149,Hougang Mall (#B1-2),90 Hougang Avenue 10 Level B1 - 2 S(538766),Singapore (538766),1.372636,103.893809
150,Hougang Mall (#3-5),90 Hougang Avenue 10 Level 3 - 5 S(538766),Singapore (538766),1.372636,103.893809
151,Pasir Ris West Plaza,735 Pasir Ris Street 72 S(510735),Singapore (510735),1.379879,103.936267
152,Rivervale Plaza,118 Rivervale Plaza S(540118),Singapore (540118),1.385594,103.901983
153,Tampines Central Community Complex,Blk 886A Tampines Street 83 S(521866),Singapore (521866),1.355507,103.934462
154,Tampines One,10 Tampines Central 1 S(529536),Singapore (529536),1.354212,103.945035
155,White Sands,1 Pasir Ris Central Street 3 S(518457),Singapore (518457),1.372417,103.949658
156,Bukit Panjang Intergrated Transport Hub,15 Petir Road S(678270),Singapore (678270),1.378316,103.762459
157,Sembawang Bus Interchange,11A Sembawang Vista S(757527),Singapore (757527),1.447482,103.819414
158,Woodlands Temporary Bus Interchange,3A Woodlands Square S(727735),Singapore (727735),1.437353,103.785964
159,Yishun Temporary Bus Interchange,20A Yishun Central S(768830),Singapore (768830),1.429768,103.837939
160,New Century Cafe,Blk 19 Ghim Moh Road #01-263 S(270019),Singapore (270019),1.311526,103.788347
161,NTUC Foodfare,507 Yishun Avenue 4 S(760507),Singapore (760507),1.41555,103.839696
162,NTUC Foodfare@29A Ghim Moh Link,29A Ghim Moh Link #01-06 S(271029),Singapore (271029),1.308641,103.784204
163,Chang Cheng Mee Wah Foodcourt,27 Woodlands Link #01-01 Chang Cheng HQ S(738732),Singapore (738732),1.452496,103.810849
164,NTUC Foodfare KTPH,90 Yishun Central S(768828),Singapore (768828),1.424448,103.838017
165,Viva Foodcourt,Blk 548 Woodlands Drive 44 #02-34 S(730548),Singapore (730548),1.430686,103.794006
166,Koufu Foodcourt@Fajar,445 Fajar Road #01-548 S(670445),Singapore (670445),1.383662,103.770611
167,Bukit Panjang Hawker Centre,259 Bukit Panjang Ring Road S(671259),Singapore (671259),1.3770581,103.7730258
168,Holland Village Market & Food Centre,1 Lorong Mambong S(277700),Singapore (277700),1.311505,103.795175
169,Yishun Park Hawker Centre,51 Yishun Avenue 11 S(768867),Singapore (768867),1.424921,103.844823
170,Admiralty MRT Station,70 Woodlands Avenue S(738344),Singapore (738344),1.440613,103.800963
171,Kranji MRT Station,960 Woodlands Road S(738702),Singapore (738702),1.4252566,103.7620429
172,Marsiling MRT Station,71 Woodlands Avenue 3 S(739044),Singapore (739044),1.43264,103.77429
173,Woodlands MRT Station,30 Woodlands Avenue 2 S(738343),Singapore (738343),1.436998,103.786504
174,Yew Tee MRT Station,61 Choa Chu Kang Drive S(689715),Singapore (689715),1.3970146,103.7472724
175,888 Plaza,Blk 888 Woodlands Drive 50 S(731888),Singapore (731888),1.437674,103.795137
176,Admiralty Place,Blk 678 Woodlands Avenue 6 S(730678),Singapore (730678),1.4406892,103.8021643
177,Fajar Shopping Centre,445 Fajar Road Level 1 & 2 S(670445),Singapore (670445),1.383662,103.770611
178,Sembawang Mart,Blk 511 Canberra Road S(750511),Singapore (750511),1.453834,103.819588
179,Vista Point,Blk 548 Woodlands Drive 44 S(730548),Singapore (730548),1.430686,103.794006
180,Bedok Bus Interchange,12 Bedok North Drive S(465492),Singapore (465492),1.3248799,103.9292396
181,Changi Business Park Bus Terminal,55 Changi South Avenue 1 S(485997),Singapore (485997),1.3423617,103.9643982
182,Eunos Bus Interchange,409 Eunos Road 2 S(409388),Singapore (409388),1.319404,103.901898
183,Serangoon Bus Interchange,20 Serangoon Avenue 2 S(556138),Singapore (556138),1.35049,103.87172
184,Upper East Coast Bus Terminal,740 Upper East Coast Road S(465549),Singapore (465549),1.31799,103.952688
185,CCMW BD 211 Food House,Blk 211 Upper Changi Road S(460211),Singapore (460211),1.325511,103.931987
186,NTUC Foodfare Tampines,878C Tampines Avenue 8 S(523878),Singapore (523878),1.351369,103.92948
187,Bedok Food Centre,1 Bedok Road S(469572),Singapore (469572),1.320385,103.955506
188,Dunman Food Centre,271 Onan Road S(424768),Singapore (424768),1.309346,103.901793
189,East Coast Lagoon Food Village,1220 East Coast Parkway S(468960),Singapore (468960),1.30668,103.935039
190,Geylang Serai Market,1 Geylang Serai S(402001),Singapore (402001),1.316657,103.898181
191,Aljunied MRT Station (EW9),81 Lorong 25 Geylang S(388310),Singapore (388310),1.3164802,103.8830933
192,Bartley MRT Station,212 Upper Paya Lebar S(534881),Singapore (534881),1.342284,103.88411
193,Bedok MRT Station,315 New Upper Changi Road S(467347),Singapore (467347),1.323794,103.930218
194,Bedok North MRT Station (DT29),315 Upper Changi Road S(467347),Singapore (467347),1.323794,103.930218
195,Dakota MRT Station,201 Airport Road S(397973),Singapore (397973),1.307961,103.888889
196,Expo MRT Station,21 Upper Changi South Avenue 1 S(486065),Singapore (486065),1.336502,103.963121
197,Lorong Chuan MRT Station,150 Serangoon Avenue 3 S(554533),Singapore (554533),1.352023,103.863545
198,Macpherson MRT Station (DT26),10 Circuit Link S(378956),Singapore (378956),1.326269,103.889187
199,Macpherson MRT Station CC10,171 Paya Lebar Rd S(409048),Singapore (409048),1.3267152,103.8898092
200,Mattar MRT Station (DT25),60 Merpati Road S(379314),Singapore (379314),1.327221,103.882895
201,Mountbatten MRT Station,301 Mountbatten Road S(398006),Singapore (398006),1.3068438,103.8824766
202,Paya Lebar MRT Station,30 Paya Lebar Road S(409006),Singapore (409006),1.3181222,103.8926855
203,Paya Lebar MRT Station CC09,30 Paya Lebar Road S(409006),Singapore (409006),1.3181222,103.8926855
204,Serangoon MRT Station CC13,600 Upper Serangoon Rd S(534801),Singapore (534801),1.3500727,103.8734346
205,Simei MRT Station,30 Simei Street 3 S(529888),Singapore (529888),1.3393058,103.9501859
206,Stadium MRT Station,3 Stadium Walk S(397692),Singapore (397692),1.30281,103.87533
207,Tai Seng MRT Station CC11,33 Upper Paya Lebar Rd S(534803),Singapore (534803),1.33588,103.88791
208,Ubi MRT Station (DT27),51 Ubi Avenue 2 S(408899),Singapore (408899),1.3273172,103.8923004
209,Upper Changi MRT Station,690 Upper Changi Road East S(485990),Singapore (485990),1.3516633,103.9642388
210,Kah Engineering (1988) Pte Ltd,96B Jalan Senang S(418482),Singapore (418482),1.326906,103.916739
211,Joo Chiat Complex,1 Joo Chiat Road S(420001),Singapore (420001),1.3128539,103.8999295
212,Boon Lay Bus Interchange,87 Jurong West Central 3 S(648343),Singapore (648343),1.3408458,103.7070508
213,Choa Chu Kang Bus Interchange,301 Choa Chu Kang Central Avenue 3 S(689811),Singapore (689811),1.383625,103.744598
214,Clementi Bus Interchange,441 Commonwealth Avenue West S(120441),Singapore (120441),1.315291,103.7645011
215,Joo Koon Bus Interchange,55 Benoi Road S(629907),Singapore (629907),1.3214903,103.683471
216,Tuas Bus Terminal,1 Tuas West Drive S(638410),Singapore (638410),1.3326565,103.634522
217,CCMW Jurong West Street 41,Blk 498 Jurong West Street 41 #01-462 S(640498),Singapore (640498),1.3483117,103.7243032
218,NTUC Foodfare Bukit Batok,296A Bukit Batok Street 22 S(651296),Singapore (651296),1.3440622,103.7464534
219,NTUC Foodfare Choa Chu Kang,Blk 303 Choa Chu Kang Avenue 4 #01-723 S(680303),Singapore (680303),1.3845389,103.7437448
220,NTUC Foodfare Jurong West,Blk 679 Jurong West Central #01-02 S(640679),Singapore (640679),1.3446085,103.7060719
221,Aspri-Westlite Construction Site,5 Jalan Papan Road S(619396),Singapore (619396),1.3222655,103.7282962
222,Megastone Holding Dormitory,42A Sungei Kadut Street 1 S(729347),Singapore (729347),1.4116217,103.753633
223,Unison Construction Dormitory,6 Tuas Basin Link S(638760),Singapore (638760),1.3183191,103.6485563
224,Choa Chu Kang Crescent NTUC Foodfare,Blk 673B Choa Chu Kang Crescent S(682673),Singapore (682673),1.4009747,103.7479339
225,Kopitiam,1 Lower Kent Ridge Road #05-01 One@Kent Ridge S (119082),Singapore (119082),1.2938701,103.7843817
226,Kopitiam,5 Lower Kent Ridge Rd #01-01 S(119074),Singapore (119074),1.2949703,103.7829431
227,Koufu Foodcourt,1 Bukit Batok Central Link #04-01 Westmall S(658713),Singapore (658713),1.3497536,103.7494064
228,Koufu Foodcourt,Blk 638A Jurong West Street 61 #01-22 S(641638),Singapore (641638),1.3419966,103.6975935
229,JTC Chemgallery at Oasis @ Sakra,3 Sakra Road S(627878),Singapore (627878),1.26735,103.70458
230,Jurong Island Checkpoint,18 Jurong Pier Road S(619618),Singapore (619618),1.30967,103.71075
231,47 Ayer Rajah Crescent,47 Ayer Rajah Crescent S(139947),Singapore (139947),1.29321,103.788
232,51 Ayer Rajah Crescent,51 Ayer Rajah Crescent S(139948),Singapore (139948),1.29383,103.78801
233,51A Ayer Rajah Crescent,51A Ayer Rajah Crescent S(139956),Singapore (139956),1.29711,103.78749
234,55 Ayer Rajah Crescent,55 Ayer Rajah Crescent S(139949),Singapore (139949),1.29444,103.78705
235,67 Ayer Rajah Crescent,67 Ayer Rajah Crescent S(139950),Singapore (139950),1.2958,103.78663
236,71 Ayer Rajah Crescent,71 Ayer Rajah Crescent S(139951),Singapore (139951),1.2968,103.78675
237,73 Ayer Rajah Crescent,73 Ayer Rajah Crescent S(139952),Singapore (139952),1.29742,103.78643
238,79 Ayer Rajah Crescent,79 Ayer Rajah Crescent S(139955),Singapore (139955),1.29802,103.78744
239,CleanTech One,1 Clean Tech Loop S(637141),Singapore (637141),1.35558,103.6923
240,CleanTech Two,3 Cleantech Loop S(637143),Singapore (637143),1.35515,103.69347
241,JTC Surface Engineering Hub,8 Buroh Street S(627563),Singapore (627563),1.31127,103.69989
242,Jurong Port Offshore Marine Centre,101 Tuas South Avenue 8 S(637423),Singapore (637423),1.29343,103.643501
243,Ayer Rajah Amenity Centre,69 Ayer Rajah Crescent S(139961),Singapore (139961),1.29624,103.78692
244,Jurong Port Road Food Centre,29A Jurong Port Road S(619112),Singapore (619112),1.30931,103.71807
245,Jurong West Hawker Centre,50 Jurong West Street 61 S(648202),Singapore (648202),1.33833,103.69855
246,Pasir Panjang Food Centre,121 Pasir Panjang Road S(118543),Singapore (118543),1.27616,103.79125
247,Taman Jurong Market & Food Centre,3 Yung Sheng Road S(618499),Singapore (618499),1.33468,103.72141
248,Timbre + Ayer Rajah Crescent Hawker Centre,73A Ayer Rajah Crescent S(139957),Singapore (139957),1.29744,103.7875
249,Buona Vista MRT station,301 South Buona Vista Road S(118177),Singapore (118177),1.29326,103.78447
250,Gul Circle Station,7A Tuas Road S(637288),Singapore (637288),1.3139,103.65532
251,Haw Par Villa MRT station,200 Holland Avenue S(278995),Singapore (278995),1.31624,103.788811
252,Kent Ridge MRT station,100 North Buona Vista Road S(139345),Singapore (139345),1.30728,103.79006
253,Labrador Park MRT station,100 Cluny Park Road S(257494),Singapore (257494),1.32218,103.81473
254,One North MRT station,9 Ayer Rajah Avenue S(138647),Singapore (138647),1.29879,103.78701
255,Pasir Panjang MRT station,71 Farrer Road S(268857),Singapore (268857),1.31741,103.80729
256,Telok Blangah MRT station,38 Toa Payoh Rise S(298113),Singapore (298113),1.33767,103.83948
257,Tuas Crescent MRT Station,90 Pioneer Road S(639608),Singapore (639608),1.32447,103.645332
258,Tuas Link MRT Station,20 Tuas West Drive S(638418),Singapore (638418),1.33263,103.63402
259,Tuas West MRT Station,131 Pioneer Road S(639609),Singapore (639609),1.325798,103.647781
260,Jurong Eco Garden,1 Cleantech Loop Singapore S(637141),Singapore (637141),1.35558,103.6923
261,Samwoh Eco Green Building,51 Kranji Crescent S(728661),Singapore (728661),1.4323,103.74976
262,Depot Height Shopping Centre,108 Depot Road S(100108),Singapore (100108),1.2812,103.81027
263,Gek Poh Shopping Centre,Blk 762 Jurong West Street 75 S(640762),Singapore (640762),1.34871,103.69788
264,Greenridge Shopping Centre,524A Jelapang Road S(671524),Singapore (671524),1.38533,103.76625
265,Greenridge Shopping Centre,524A Jelapang Road S(671524),Singapore (671524),1.38533,103.76625
266,Jurong Point Shopping Centre,1 Jurong West Central 2 #03-07 Jurong Point Shopping Centre S(648886),Singapore (648886),1.33954,103.70691
267,Limbang Shopping Centre,532 Choa Chu Kang Street 51 S(680532),Singapore (680532),1.39129,103.74358
268,Pasir Ris West Plaza,Blk 735 Pasir Ris Street 72 S(510735),Singapore (510735),1.37927,103.93595
269,Pioneer Mall,638 Jurong West Street 61 S(640638),Singapore (640638),1.34167,103.69721
270,Sunshine Place,475 Choa Chu Kang Avenue 3 S(680475),Singapore (680475),1.37787,103.73903
271,Taman Jurong Shopping Centre,Blk 399 Yung Sheng Road (Near Party World/NTUC)(610399),Singapore (610399),1.33452,103.72058
272,Yew Tee Square,624 Choa Chu Kang Street 62 S(680624),Singapore (680624),1.3979,103.74695